[{"OBJECT_NAME":"STARLINK-5620","OBJECT_ID":"2023-014Z","EPOCH":"2026-03-09T22:50:04.007328","MEAN_MOTION":14.9832514,"ECCENTRICITY":0.00042346,"INCLINATION":69.9981,"RA_OF_ASC_NODE":83.7072,"ARG_OF_PERICENTER":270.6473,"MEAN_ANOMALY":89.4201,"EPHEMERIS_TYPE":0,"CLASSIFICATION_TYPE":"U","NORAD_CAT_ID":55414,"ELEMENT_SET_NO":999,"REV_AT_EPOCH":17160,"BSTAR":2.1797609e-5,"MEAN_MOTION_DOT":1.67e-6,"MEAN_MOTION_DDOT":0},{"OBJECT_NAME":"ELECTRON KICK STAGE R\/B","OBJECT_ID":"2025-229C","EPOCH":"2026-03-09T11:01:34.584384","MEAN_MOTION":15.04670102,"ECCENTRICITY":0.00392514,"INCLINATION":41.9818,"RA_OF_ASC_NODE":119.4948,"ARG_OF_PERICENTER":118.9737,"MEAN_ANOMALY":241.5033,"EPHEMERIS_TYPE":0,"CLASSIFICATION_TYPE":"U","NORAD_CAT_ID":65973,"ELEMENT_SET_NO":999,"REV_AT_EPOCH":2194,"BSTAR":0.00045211532,"MEAN_MOTION_DOT":6.384e-5,"MEAN_MOTION_DDOT":0}]
